[{"OBJECT_NAME":"STARLINK-31699","OBJECT_ID":"2024-074T","EPOCH":"2026-03-09T03:39:50.243040","MEAN_MOTION":15.27587018,"ECCENTRICITY":6.68e-5,"INCLINATION":43.0013,"RA_OF_ASC_NODE":346.4327,"ARG_OF_PERICENTER":316.005,"MEAN_ANOMALY":44.0749,"EPHEMERIS_TYPE":0,"CLASSIFICATION_TYPE":"U","NORAD_CAT_ID":59551,"ELEMENT_SET_NO":999,"REV_AT_EPOCH":10593,"BSTAR":-9.8611676e-5,"MEAN_MOTION_DOT":-2.975e-5,"MEAN_MOTION_DDOT":0},{"OBJECT_NAME":"CZ-6A DEB","OBJECT_ID":"2022-151DE","EPOCH":"2026-03-09T09:45:43.657920","MEAN_MOTION":15.34292219,"ECCENTRICITY":0.00393756,"INCLINATION":99.0022,"RA_OF_ASC_NODE":218.5596,"ARG_OF_PERICENTER":192.6197,"MEAN_ANOMALY":167.4059,"EPHEMERIS_TYPE":0,"CLASSIFICATION_TYPE":"U","NORAD_CAT_ID":54359,"ELEMENT_SET_NO":999,"REV_AT_EPOCH":10560,"BSTAR":0.0065240017,"MEAN_MOTION_DOT":0.00228186,"MEAN_MOTION_DDOT":0}]
